[{"OBJECT_NAME":"SAPPHIRE","OBJECT_ID":"2013-009C","EPOCH":"2026-03-03T01:18:40.688640","MEAN_MOTION":14.3520528,"ECCENTRICITY":0.00108,"INCLINATION":98.4215,"RA_OF_ASC_NODE":244.0407,"ARG_OF_PERICENTER":199.6602,"MEAN_ANOMALY":160.4169,"EPHEMERIS_TYPE":0,"CLASSIFICATION_TYPE":"U","NORAD_CAT_ID":39088,"ELEMENT_SET_NO":999,"REV_AT_EPOCH":68135,"BSTAR":8.7774e-5,"MEAN_MOTION_DOT":2.08e-6,"MEAN_MOTION_DDOT":0},{"OBJECT_NAME":"PRAETORIAN SDA_602","OBJECT_ID":"2025-203A","EPOCH":"2026-03-03T03:20:50.576928","MEAN_MOTION":13.84332162,"ECCENTRICITY":0.000707,"INCLINATION":81.3003,"RA_OF_ASC_NODE":109.0077,"ARG_OF_PERICENTER":117.5208,"MEAN_ANOMALY":242.6668,"EPHEMERIS_TYPE":0,"CLASSIFICATION_TYPE":"U","NORAD_CAT_ID":65565,"ELEMENT_SET_NO":999,"REV_AT_EPOCH":2402,"BSTAR":0.0002256,"MEAN_MOTION_DOT":2.64e-6,"MEAN_MOTION_DDOT":0},{"OBJECT_NAME":"PRAETORIAN SDA_603","OBJECT_ID":"2025-203B","EPOCH":"2026-03-03T03:11:15.581472","MEAN_MOTION":13.83902527,"ECCENTRICITY":0.001065,"INCLINATION":81.3011,"RA_OF_ASC_NODE":108.8545,"ARG_OF_PERICENTER":117.6126,"MEAN_ANOMALY":242.6113,"EPHEMERIS_TYPE":0,"CLASSIFICATION_TYPE":"U","NORAD_CAT_ID":65566,"ELEMENT_SET_NO":999,"REV_AT_EPOCH":2403,"BSTAR":0.00027284,"MEAN_MOTION_DOT":3.15e-6,"MEAN_MOTION_DDOT":0},{"OBJECT_NAME":"PRAETORIAN SDA_604","OBJECT_ID":"2025-203C","EPOCH":"2026-03-03T03:48:47.854944","MEAN_MOTION":13.83033237,"ECCENTRICITY":0.0006654,"INCLINATION":81.3027,"RA_OF_ASC_NODE":109.0797,"ARG_OF_PERICENTER":123.4196,"MEAN_ANOMALY":236.7597,"EPHEMERIS_TYPE":0,"CLASSIFICATION_TYPE":"U","NORAD_CAT_ID":65567,"ELEMENT_SET_NO":999,"REV_AT_EPOCH":2402,"BSTAR":1.3475e-6,"MEAN_MOTION_DOT":1.3e-7,"MEAN_MOTION_DDOT":0},{"OBJECT_NAME":"PRAETORIAN SDA_605","OBJECT_ID":"2025-203D","EPOCH":"2026-03-03T03:45:05.587488","MEAN_MOTION":13.83527899,"ECCENTRICITY":0.0009509,"INCLINATION":81.2992,"RA_OF_ASC_NODE":108.854,"ARG_OF_PERICENTER":114.1771,"MEAN_ANOMALY":246.038,"EPHEMERIS_TYPE":0,"CLASSIFICATION_TYPE":"U","NORAD_CAT_ID":65568,"ELEMENT_SET_NO":999,"REV_AT_EPOCH":2403,"BSTAR":4.508e-5,"MEAN_MOTION_DOT":6.2e-7,"MEAN_MOTION_DDOT":0},{"OBJECT_NAME":"PRAETORIAN SDA_606","OBJECT_ID":"2025-203E","EPOCH":"2026-03-03T03:24:17.654400","MEAN_MOTION":13.83530599,"ECCENTRICITY":0.0006518,"INCLINATION":81.3033,"RA_OF_ASC_NODE":109.0583,"ARG_OF_PERICENTER":110.967,"MEAN_ANOMALY":249.2184,"EPHEMERIS_TYPE":0,"CLASSIFICATION_TYPE":"U","NORAD_CAT_ID":65569,"ELEMENT_SET_NO":999,"REV_AT_EPOCH":2402,"BSTAR":0.00020659,"MEAN_MOTION_DOT":2.4e-6,"MEAN_MOTION_DDOT":0},{"OBJECT_NAME":"PRAETORIAN SDA_607","OBJECT_ID":"2025-203F","EPOCH":"2026-03-03T03:24:12.832416","MEAN_MOTION":13.84464867,"ECCENTRICITY":0.001004,"INCLINATION":81.3014,"RA_OF_ASC_NODE":108.8749,"ARG_OF_PERICENTER":117.6664,"MEAN_ANOMALY":242.5513,"EPHEMERIS_TYPE":0,"CLASSIFICATION_TYPE":"U","NORAD_CAT_ID":65570,"ELEMENT_SET_NO":999,"REV_AT_EPOCH":2403,"BSTAR":0.00023414,"MEAN_MOTION_DOT":2.74e-6,"MEAN_MOTION_DDOT":0},{"OBJECT_NAME":"PRAETORIAN SDA_608","OBJECT_ID":"2025-203G","EPOCH":"2026-03-03T03:41:46.233312","MEAN_MOTION":13.83885942,"ECCENTRICITY":0.0007109,"INCLINATION":81.2983,"RA_OF_ASC_NODE":108.9794,"ARG_OF_PERICENTER":122.9701,"MEAN_ANOMALY":237.214,"EPHEMERIS_TYPE":0,"CLASSIFICATION_TYPE":"U","NORAD_CAT_ID":65571,"ELEMENT_SET_NO":999,"REV_AT_EPOCH":2402,"BSTAR":5.4565e-5,"MEAN_MOTION_DOT":7.2e-7,"MEAN_MOTION_DDOT":0},{"OBJECT_NAME":"PRAETORIAN SDA_609","OBJECT_ID":"2025-203H","EPOCH":"2026-03-03T02:54:14.044032","MEAN_MOTION":13.84314002,"ECCENTRICITY":0.0008143,"INCLINATION":81.3028,"RA_OF_ASC_NODE":109.0191,"ARG_OF_PERICENTER":117.2266,"MEAN_ANOMALY":242.9721,"EPHEMERIS_TYPE":0,"CLASSIFICATION_TYPE":"U","NORAD_CAT_ID":65572,"ELEMENT_SET_NO":999,"REV_AT_EPOCH":2402,"BSTAR":0.00020909,"MEAN_MOTION_DOT":2.46e-6,"MEAN_MOTION_DDOT":0},{"OBJECT_NAME":"PRAETORIAN SDA_610","OBJECT_ID":"2025-203J","EPOCH":"2026-03-03T03:19:20.409024","MEAN_MOTION":13.84010227,"ECCENTRICITY":0.0007757,"INCLINATION":81.2985,"RA_OF_ASC_NODE":108.9606,"ARG_OF_PERICENTER":118.5814,"MEAN_ANOMALY":241.6124,"EPHEMERIS_TYPE":0,"CLASSIFICATION_TYPE":"U","NORAD_CAT_ID":65573,"ELEMENT_SET_NO":999,"REV_AT_EPOCH":2402,"BSTAR":6.2087e-5,"MEAN_MOTION_DOT":8.1e-7,"MEAN_MOTION_DDOT":0},{"OBJECT_NAME":"PRAETORIAN SDA_611","OBJECT_ID":"2025-203K","EPOCH":"2026-03-03T03:57:49.243392","MEAN_MOTION":13.83295678,"ECCENTRICITY":0.0006831,"INCLINATION":81.2982,"RA_OF_ASC_NODE":109.0036,"ARG_OF_PERICENTER":126.4197,"MEAN_ANOMALY":233.7589,"EPHEMERIS_TYPE":0,"CLASSIFICATION_TYPE":"U","NORAD_CAT_ID":65574,"ELEMENT_SET_NO":999,"REV_AT_EPOCH":2402,"BSTAR":0.00054052,"MEAN_MOTION_DOT":6.05e-6,"MEAN_MOTION_DDOT":0},{"OBJECT_NAME":"PRAETORIAN SDA_612","OBJECT_ID":"2025-203L","EPOCH":"2026-03-03T03:25:25.269312","MEAN_MOTION":13.85043582,"ECCENTRICITY":0.0010418,"INCLINATION":81.3004,"RA_OF_ASC_NODE":108.8714,"ARG_OF_PERICENTER":118.9595,"MEAN_ANOMALY":241.2608,"EPHEMERIS_TYPE":0,"CLASSIFICATION_TYPE":"U","NORAD_CAT_ID":65575,"ELEMENT_SET_NO":999,"REV_AT_EPOCH":2403,"BSTAR":0.0002673,"MEAN_MOTION_DOT":3.14e-6,"MEAN_MOTION_DDOT":0},{"OBJECT_NAME":"PRAETORIAN SDA_613","OBJECT_ID":"2025-203M","EPOCH":"2026-03-03T03:23:45.078144","MEAN_MOTION":13.82987263,"ECCENTRICITY":0.0007053,"INCLINATION":81.2976,"RA_OF_ASC_NODE":108.9643,"ARG_OF_PERICENTER":118.9679,"MEAN_ANOMALY":241.2185,"EPHEMERIS_TYPE":0,"CLASSIFICATION_TYPE":"U","NORAD_CAT_ID":65576,"ELEMENT_SET_NO":999,"REV_AT_EPOCH":2402,"BSTAR":0.00031386,"MEAN_MOTION_DOT":3.55e-6,"MEAN_MOTION_DDOT":0},{"OBJECT_NAME":"PRAETORIAN SDA_614","OBJECT_ID":"2025-203N","EPOCH":"2026-03-03T04:25:06.584736","MEAN_MOTION":13.84762429,"ECCENTRICITY":0.0008358,"INCLINATION":81.299,"RA_OF_ASC_NODE":108.8846,"ARG_OF_PERICENTER":117.0503,"MEAN_ANOMALY":243.1508,"EPHEMERIS_TYPE":0,"CLASSIFICATION_TYPE":"U","NORAD_CAT_ID":65577,"ELEMENT_SET_NO":999,"REV_AT_EPOCH":2404,"BSTAR":-0.00057789,"MEAN_MOTION_DOT":-6.38e-6,"MEAN_MOTION_DDOT":0},{"OBJECT_NAME":"PRAETORIAN SDA_615","OBJECT_ID":"2025-203P","EPOCH":"2026-03-03T03:14:03.648480","MEAN_MOTION":13.84421767,"ECCENTRICITY":0.0010257,"INCLINATION":81.2997,"RA_OF_ASC_NODE":108.8269,"ARG_OF_PERICENTER":117.134,"MEAN_ANOMALY":243.0864,"EPHEMERIS_TYPE":0,"CLASSIFICATION_TYPE":"U","NORAD_CAT_ID":65578,"ELEMENT_SET_NO":999,"REV_AT_EPOCH":2403,"BSTAR":0.00029916,"MEAN_MOTION_DOT":3.47e-6,"MEAN_MOTION_DDOT":0},{"OBJECT_NAME":"PRAETORIAN SDA_616","OBJECT_ID":"2025-203Q","EPOCH":"2026-03-03T03:56:42.902016","MEAN_MOTION":13.83297263,"ECCENTRICITY":0.0006606,"INCLINATION":81.3035,"RA_OF_ASC_NODE":109.085,"ARG_OF_PERICENTER":126.1676,"MEAN_ANOMALY":234.0092,"EPHEMERIS_TYPE":0,"CLASSIFICATION_TYPE":"U","NORAD_CAT_ID":65579,"ELEMENT_SET_NO":999,"REV_AT_EPOCH":2402,"BSTAR":0.00028721,"MEAN_MOTION_DOT":3.27e-6,"MEAN_MOTION_DDOT":0}]
