SAPPHIRE                
1 39088U 13009C   26062.05463760  .00000208  00000+0  87774-4 0  9994
2 39088  98.4215 244.0407 0010800 199.6602 160.4169 14.35205280681352
PRAETORIAN SDA_602      
1 65565U 25203A   26062.13947427  .00000264  00000+0  22560-3 0  9991
2 65565  81.3003 109.0077 0007070 117.5208 242.6668 13.84332162 24021
PRAETORIAN SDA_603      
1 65566U 25203B   26062.13281923  .00000315  00000+0  27284-3 0  9999
2 65566  81.3011 108.8545 0010650 117.6126 242.6113 13.83902527 24039
PRAETORIAN SDA_604      
1 65567U 25203C   26062.15888721  .00000013  00000+0  13475-5 0  9995
2 65567  81.3027 109.0797 0006654 123.4196 236.7597 13.83033237 24022
PRAETORIAN SDA_605      
1 65568U 25203D   26062.15631467  .00000062  00000+0  45080-4 0  9999
2 65568  81.2992 108.8540 0009509 114.1771 246.0380 13.83527899 24031
PRAETORIAN SDA_606      
1 65569U 25203E   26062.14187100  .00000240  00000+0  20659-3 0  9991
2 65569  81.3033 109.0583 0006518 110.9670 249.2184 13.83530599 24025
PRAETORIAN SDA_607      
1 65570U 25203F   26062.14181519  .00000274  00000+0  23414-3 0  9990
2 65570  81.3014 108.8749 0010040 117.6664 242.5513 13.84464867 24037
PRAETORIAN SDA_608      
1 65571U 25203G   26062.15400733  .00000072  00000+0  54565-4 0  9992
2 65571  81.2983 108.9794 0007109 122.9701 237.2140 13.83885942 24022
PRAETORIAN SDA_609      
1 65572U 25203H   26062.12099588  .00000246  00000+0  20909-3 0  9999
2 65572  81.3028 109.0191 0008143 117.2266 242.9721 13.84314002 24022
PRAETORIAN SDA_610      
1 65573U 25203J   26062.13843066  .00000081  00000+0  62087-4 0  9990
2 65573  81.2985 108.9606 0007757 118.5814 241.6124 13.84010227 24021
PRAETORIAN SDA_611      
1 65574U 25203K   26062.16515328  .00000605  00000+0  54052-3 0  9995
2 65574  81.2982 109.0036 0006831 126.4197 233.7589 13.83295678 24023
PRAETORIAN SDA_612      
1 65575U 25203L   26062.14265358  .00000314  00000+0  26730-3 0  9998
2 65575  81.3004 108.8714 0010418 118.9595 241.2608 13.85043582 24038
PRAETORIAN SDA_613      
1 65576U 25203M   26062.14149396  .00000355  00000+0  31386-3 0  9990
2 65576  81.2976 108.9643 0007053 118.9679 241.2185 13.82987263 24021
PRAETORIAN SDA_614      
1 65577U 25203N   26062.18410399 -.00000638  00000+0 -57789-3 0  9990
2 65577  81.2990 108.8846 0008358 117.0503 243.1508 13.84762429 24046
PRAETORIAN SDA_615      
1 65578U 25203P   26062.13476445  .00000347  00000+0  29916-3 0  9996
2 65578  81.2997 108.8269 0010257 117.1340 243.0864 13.84421767 24034
PRAETORIAN SDA_616      
1 65579U 25203Q   26062.16438544  .00000327  00000+0  28721-3 0  9999
2 65579  81.3035 109.0850 0006606 126.1676 234.0092 13.83297263 24026
